[{"OBJECT_NAME":"STARLINK-30977","OBJECT_ID":"2023-183Y","EPOCH":"2026-03-09T22:00:01.999584","MEAN_MOTION":15.26728485,"ECCENTRICITY":0.00014102,"INCLINATION":43.0005,"RA_OF_ASC_NODE":40.5403,"ARG_OF_PERICENTER":261.7512,"MEAN_ANOMALY":202.8165,"EPHEMERIS_TYPE":0,"CLASSIFICATION_TYPE":"U","NORAD_CAT_ID":58459,"ELEMENT_SET_NO":999,"REV_AT_EPOCH":573,"BSTAR":0.0017851667,"MEAN_MOTION_DOT":0.0004792,"MEAN_MOTION_DDOT":0},{"OBJECT_NAME":"TRANSPORTER-12 OBJECT BT","OBJECT_ID":"2025-009BT","EPOCH":"2026-03-09T17:08:24.281088","MEAN_MOTION":15.27872239,"ECCENTRICITY":0.00036816,"INCLINATION":97.4094,"RA_OF_ASC_NODE":151.5992,"ARG_OF_PERICENTER":313.5044,"MEAN_ANOMALY":46.5889,"EPHEMERIS_TYPE":0,"CLASSIFICATION_TYPE":"U","NORAD_CAT_ID":62674,"ELEMENT_SET_NO":999,"REV_AT_EPOCH":12136,"BSTAR":0.000510288,"MEAN_MOTION_DOT":0.00013824,"MEAN_MOTION_DDOT":0}]
